NORAD_CAT_ID,OBJECT_NAME,OBJECT_TYPE,EPOCH,MEAN_MOTION,ECCENTRICITY,INCLINATION,RA_OF_ASC_NODE,ARG_OF_PERICENTER,MEAN_ANOMALY,BSTAR,MEAN_MOTION_DOT,MEAN_MOTION_DDOT,TLE_LINE0,TLE_LINE1,TLE_LINE2,SEMIMAJOR_AXIS,PERIOD,APOGEE,PERIGEE,DECAYED
55638.0,STARLINK-5507,PAYLOAD,2024-04-17 11:40:27,14.98340023,0.0002944,70.0001,147.1899,268.4704,91.6118,0.00010643,1.177e-05,0.0,0 STARLINK-5507,1 55638U 23021L   24108.48643131  .00001177  00000-0  10643-3 0  9993,2 55638  70.0001 147.1899 0002944 268.4704  91.6118 14.98340023 64769,6950.162,96.106,574.073,569.981,0.0
55638.0,STARLINK-5507,PAYLOAD,2024-04-18 11:42:30,14.98316629,0.0002701,70.0001,144.6641,260.9795,99.1058,-8.6798e-05,-1.128e-05,0.0,0 STARLINK-5507,1 55638U 23021L   24109.48785264 -.00001128  00000-0 -86798-4 0  9991,2 55638  70.0001 144.6641 0002701 260.9795  99.1058 14.98316629 64619,6950.234,96.108,573.976,570.222,0.0
55638.0,STARLINK-5507,PAYLOAD,2024-04-19 05:19:56,14.98344931,0.0002506,70.0019,142.8143,255.3229,104.7652,0.00023522,2.716e-05,0.0,0 STARLINK-5507,1 55638U 23021L   24110.22218257  .00002716  00000-0  23522-3 0  9995,2 55638  70.0019 142.8143 0002506 255.3229 104.7652 14.98344931 64720,6950.147,96.106,573.753,570.27,0.0
55638.0,STARLINK-5507,PAYLOAD,2024-04-19 11:44:27,14.98356909,0.000257,70.0006,142.1394,261.3089,98.7779,0.00031359,3.653e-05,0.0,0 STARLINK-5507,1 55638U 23021L   24110.48921057  .00003653  00000-0  31359-3 0  9990,2 55638  70.0006 142.1394 0002570 261.3089  98.7779 14.98356909 64763,6950.11,96.105,573.761,570.189,0.0
55638.0,STARLINK-5507,PAYLOAD,2024-04-20 05:21:58,14.98322437,0.0003395,69.9991,140.2888,260.7405,99.337,0.00010969,1.216e-05,0.0,0 STARLINK-5507,1 55638U 23021L   24111.22359401  .00001216  00000-0  10969-3 0  9998,2 55638  69.9991 140.2888 0003395 260.7405  99.3370 14.98322437 64876,6950.216,96.107,574.441,569.722,0.0
55638.0,STARLINK-5507,PAYLOAD,2024-04-20 11:46:30,14.98322811,0.000354,69.9984,139.6142,264.0319,96.0437,7.2326e-05,7.7e-06,0.0,0 STARLINK-5507,1 55638U 23021L   24111.49063529  .00000770  00000-0  72326-4 0  9990,2 55638  69.9984 139.6142 0003540 264.0319  96.0437 14.98322811 65219,6950.215,96.107,574.54,569.62,0.0
55638.0,STARLINK-5507,PAYLOAD,2024-04-21 11:48:33,14.98322765,0.0003379,69.999,137.09,265.2656,94.8117,-0.00045697,-5.54e-05,0.0,0 STARLINK-5507,1 55638U 23021L   24112.49205212 -.00005540  00000-0 -45697-3 0  9990,2 55638  69.9990 137.0900 0003379 265.2656  94.8117 14.98322765 65362,6950.215,96.107,574.429,569.732,0.0
55638.0,STARLINK-5507,PAYLOAD,2024-04-22 03:49:57,14.98259893,0.0004333,69.9993,135.407,287.5104,72.5581,-0.0005237,-6.326e-05,0.0,0 STARLINK-5507,1 55638U 23021L   24113.15969859 -.00006326  00000-0 -52370-3 0  9997,2 55638  69.9993 135.4070 0004333 287.5104  72.5581 14.98259893 65168,6950.41,96.111,575.286,569.263,0.0
55638.0,STARLINK-5507,PAYLOAD,2024-04-22 10:14:29,14.98277181,0.0002897,70.001,134.7356,256.4602,103.6234,-0.00024839,-3.051e-05,0.0,0 STARLINK-5507,1 55638U 23021L   24113.42673302 -.00003051  00000-0 -24839-3 0  9993,2 55638  70.0010 134.7356 0002897 256.4602 103.6234 14.98277181 65207,6950.356,96.11,574.235,570.208,0.0
55638.0,STARLINK-5507,PAYLOAD,2024-04-22 11:50:35,14.98313577,0.0002663,69.9992,134.5647,277.5781,82.5075,0.00012084,1.349e-05,0.0,0 STARLINK-5507,1 55638U 23021L   24113.49346563  .00001349  00000-0  12084-3 0  9991,2 55638  69.9992 134.5647 0002663 277.5781  82.5075 14.98313577 65216,6950.244,96.108,573.96,570.258,0.0
55638.0,STARLINK-5507,PAYLOAD,2024-04-23 03:51:55,14.98319171,0.0003127,69.999,132.8806,268.9041,91.1759,0.00031782,3.7e-05,0.0,0 STARLINK-5507,1 55638U 23021L   24114.16106129  .00003700  00000-0  31782-3 0  9997,2 55638  69.9990 132.8806 0003127 268.9041  91.1759 14.98319171 65313,6950.226,96.108,574.265,569.918,0.0
55638.0,STARLINK-5507,PAYLOAD,2024-04-23 10:16:28,14.98321426,0.0003034,69.9994,132.208,265.7681,94.3131,0.00032109,3.739e-05,0.0,0 STARLINK-5507,1 55638U 23021L   24114.42810187  .00003739  00000-0  32109-3 0  9998,2 55638  69.9994 132.2080 0003034 265.7681  94.3131 14.98321426 65659,6950.219,96.108,574.193,569.976,0.0
55638.0,STARLINK-5507,PAYLOAD,2024-04-24 05:30:04,14.98311298,0.000293,69.9994,130.1879,258.3661,101.7169,0.00079632,9.417e-05,0.0,0 STARLINK-5507,1 55638U 23021L   24115.22921516  .00009417  00000-0  79632-3 0  9997,2 55638  69.9994 130.1879 0002930 258.3661 101.7169 14.98311298 65472,6950.251,96.108,574.152,570.079,0.0
55638.0,STARLINK-5507,PAYLOAD,2024-04-24 10:18:28,14.9831437,0.0002936,69.9996,129.6838,260.1608,99.922,0.00076072,8.992e-05,0.0,0 STARLINK-5507,1 55638U 23021L   24115.42949662  .00008992  00000-0  76072-3 0  9993,2 55638  69.9996 129.6838 0002936 260.1608  99.9220 14.98314370 65807,6950.241,96.108,574.147,570.066,0.0
55638.0,STARLINK-5507,PAYLOAD,2024-04-25 03:55:56,14.9834798,0.0002941,69.9994,127.8324,261.4413,98.6413,4.2313e-05,4.12e-06,0.0,0 STARLINK-5507,1 55638U 23021L   24116.16384789  .00000412  00000-0  42313-4 0  9999,2 55638  69.9994 127.8324 0002941 261.4413  98.6413 14.98347980 65611,6950.137,96.106,574.046,569.958,0.0
55638.0,STARLINK-5507,PAYLOAD,2024-04-25 10:20:28,14.98346719,0.0002963,69.9993,127.1589,262.1519,97.9304,2.2136e-05,1.71e-06,0.0,0 STARLINK-5507,1 55638U 23021L   24116.43088597  .00000171  00000-0  22136-4 0  9990,2 55638  69.9993 127.1589 0002963 262.1519  97.9304 14.98346719 65952,6950.141,96.106,574.066,569.947,0.0
55638.0,STARLINK-5507,PAYLOAD,2024-04-26 03:57:56,14.98346445,0.0002817,69.9997,125.3078,258.8259,101.2583,-8.9533e-05,-1.162e-05,0.0,0 STARLINK-5507,1 55638U 23021L   24117.16524047 -.00001162  00000-0 -89533-4 0  9993,2 55638  69.9997 125.3078 0002817 258.8259 101.2583 14.98346445 65763,6950.142,96.106,573.965,570.049,0.0
55638.0,STARLINK-5507,PAYLOAD,2024-04-26 10:22:28,14.98344317,0.0002977,69.9992,124.6342,268.0175,92.0643,-0.0001166,-1.484e-05,0.0,0 STARLINK-5507,1 55638U 23021L   24117.43228009 -.00001484  00000-0 -11660-3 0  9994,2 55638  69.9992 124.6342 0002977 268.0175  92.0643 14.98344317 66100,6950.149,96.106,574.083,569.945,0.0
55638.0,STARLINK-5507,PAYLOAD,2024-04-27 03:59:57,14.98331802,0.000305,69.9987,122.7806,270.4643,89.6167,6.6253e-05,6.98e-06,0.0,0 STARLINK-5507,1 55638U 23021L   24118.16663719  .00000698  00000-0  66253-4 0  9999,2 55638  69.9987 122.7806 0003050 270.4643  89.6167 14.98331802 65914,6950.187,96.107,574.172,569.933,0.0
55638.0,STARLINK-5507,PAYLOAD,2024-04-27 10:24:29,14.98340498,0.000307,69.9987,122.1071,269.5411,90.5396,-1.647e-05,-2.9e-06,0.0,0 STARLINK-5507,1 55638U 23021L   24118.43367224 -.00000290  00000-0 -16470-4 0  9997,2 55638  69.9987 122.1071 0003070 269.5411  90.5396 14.98340498 66250,6950.16,96.106,574.159,569.892,0.0
55638.0,STARLINK-5507,PAYLOAD,2024-04-28 04:01:58,14.98328309,0.0002966,69.9987,120.2555,266.8444,93.2376,-9.2611e-05,-1.198e-05,0.0,0 STARLINK-5507,1 55638U 23021L   24119.16804039 -.00001198  00000-0 -92611-4 0  9997,2 55638  69.9987 120.2555 0002966 266.8444  93.2376 14.98328309 66069,6950.198,96.107,574.125,570.002,0.0
55638.0,STARLINK-5507,PAYLOAD,2024-04-28 10:26:30,14.98327914,0.0002965,69.9988,119.5825,270.1302,89.9517,-6.1529e-05,-8.27e-06,0.0,0 STARLINK-5507,1 55638U 23021L   24119.43508005 -.00000827  00000-0 -61529-4 0  9993,2 55638  69.9988 119.5825 0002965 270.1302  89.9517 14.98327914 66409,6950.199,96.107,574.125,570.004,0.0
55638.0,STARLINK-5507,PAYLOAD,2024-04-28 16:51:03,14.98328716,0.0002963,69.9988,118.9092,270.1195,89.9625,-3.9315e-05,-5.62e-06,0.0,0 STARLINK-5507,1 55638U 23021L   24119.70211892 -.00000562  00000-0 -39315-4 0  9992,2 55638  69.9988 118.9092 0002963 270.1195  89.9625 14.98328716 66441,6950.197,96.107,574.121,570.003,0.0
55638.0,STARLINK-5507,PAYLOAD,2024-04-29 05:40:07,14.98330611,0.0003047,69.9984,117.5621,269.8218,90.2592,-5.2935e-06,-1.56e-06,0.0,0 STARLINK-5507,1 55638U 23021L   24120.23619640 -.00000156  00000-0 -52935-5 0  9998,2 55638  69.9984 117.5621 0003047 269.8218  90.2592 14.98330611 66226,6950.191,96.107,574.174,569.938,0.0
55638.0,STARLINK-5507,PAYLOAD,2024-04-29 10:28:31,14.98331539,0.0003025,69.9985,117.0568,270.1656,89.9156,1.0599e-05,3.3e-07,0.0,0 STARLINK-5507,1 55638U 23021L   24120.43647540  .00000033  00000-0  10599-4 0  9991,2 55638  69.9985 117.0568 0003025 270.1656  89.9156 14.98331539 66556,6950.188,96.107,574.156,569.951,0.0
55638.0,STARLINK-5507,PAYLOAD,2024-04-29 16:53:03,14.98332836,0.0003071,69.9983,116.3836,270.4377,89.643,-1.0983e-05,-2.24e-06,0.0,0 STARLINK-5507,1 55638U 23021L   24120.70351456 -.00000224  00000-0 -10983-4 0  9990,2 55638  69.9983 116.3836 0003071 270.4377  89.6430 14.98332836 66595,6950.184,96.107,574.184,569.915,0.0
55638.0,STARLINK-5507,PAYLOAD,2024-04-30 05:42:08,14.98329415,0.0003021,69.9983,115.037,270.078,90.0033,7.1348e-05,7.58e-06,0.0,0 STARLINK-5507,1 55638U 23021L   24121.23759490  .00000758  00000-0  71348-4 0  9991,2 55638  69.9983 115.0370 0003021 270.0780  90.0033 14.98329415 66373,6950.195,96.107,574.159,569.96,0.0
55638.0,STARLINK-5507,PAYLOAD,2024-04-30 08:54:24,14.9832935,0.0002976,69.9985,114.7003,270.8345,89.2473,8.9355e-05,9.73e-06,0.0,0 STARLINK-5507,1 55638U 23021L   24121.37111453  .00000973  00000-0  89355-4 0  9993,2 55638  69.9985 114.7003 0002976 270.8345  89.2473 14.98329350 66698,6950.195,96.107,574.128,569.992,0.0
55638.0,STARLINK-5507,PAYLOAD,2024-04-30 16:55:04,14.98328022,0.0002913,69.9987,113.859,266.0197,94.0629,4.8256e-05,4.83e-06,0.0,0 STARLINK-5507,1 55638U 23021L   24121.70491651  .00000483  00000-0  48256-4 0  9992,2 55638  69.9987 113.8590 0002913 266.0197  94.0629 14.98328022 66742,6950.199,96.107,574.089,570.039,0.0
55638.0,STARLINK-5507,PAYLOAD,2024-05-01 05:44:09,14.98330986,0.0002974,69.9985,112.5121,269.897,90.1848,1.9229e-05,1.36e-06,0.0,0 STARLINK-5507,1 55638U 23021L   24122.23899525  .00000136  00000-0  19229-4 0  9996,2 55638  69.9985 112.5121 0002974 269.8970  90.1848 14.98330986 66521,6950.19,96.107,574.122,569.988,0.0
